{
  "type": "FeatureCollection",
  "features": [
    {
      "type": "Feature",
      "properties": {
        "node_id": "P001",
        "graph_index": 0,
        "map_label": "Rotterdam",
        "node_class": "aoi",
        "site_type": "port",
        "lon": 4.145,
        "lat": 51.95,
        "in_gulf_inset": 0
      },
      "geometry": {
        "type": "Point",
        "coordinates": [
          4.145,
          51.95
        ]
      }
    },
    {
      "type": "Feature",
      "properties": {
        "node_id": "P002",
        "graph_index": 1,
        "map_label": "Fujairah",
        "node_class": "aoi",
        "site_type": "terminal",
        "lon": 56.356,
        "lat": 25.199,
        "in_gulf_inset": 1
      },
      "geometry": {
        "type": "Point",
        "coordinates": [
          56.356,
          25.199
        ]
      }
    },
    {
      "type": "Feature",
      "properties": {
        "node_id": "P003",
        "graph_index": 2,
        "map_label": "Ras Tanura",
        "node_class": "aoi",
        "site_type": "terminal",
        "lon": 50.157,
        "lat": 26.643,
        "in_gulf_inset": 1
      },
      "geometry": {
        "type": "Point",
        "coordinates": [
          50.157,
          26.643
        ]
      }
    },
    {
      "type": "Feature",
      "properties": {
        "node_id": "P004",
        "graph_index": 3,
        "map_label": "Jurong Island",
        "node_class": "aoi",
        "site_type": "refinery",
        "lon": 103.708,
        "lat": 1.274,
        "in_gulf_inset": 0
      },
      "geometry": {
        "type": "Point",
        "coordinates": [
          103.708,
          1.274
        ]
      }
    },
    {
      "type": "Feature",
      "properties": {
        "node_id": "P005",
        "graph_index": 4,
        "map_label": "Houston",
        "node_class": "aoi",
        "site_type": "port",
        "lon": -95.1,
        "lat": 29.736,
        "in_gulf_inset": 0
      },
      "geometry": {
        "type": "Point",
        "coordinates": [
          -95.1,
          29.736
        ]
      }
    },
    {
      "type": "Feature",
      "properties": {
        "node_id": "P006",
        "graph_index": 5,
        "map_label": "Ningbo-Zhoushan",
        "node_class": "aoi",
        "site_type": "port",
        "lon": 121.982,
        "lat": 29.935,
        "in_gulf_inset": 0
      },
      "geometry": {
        "type": "Point",
        "coordinates": [
          121.982,
          29.935
        ]
      }
    },
    {
      "type": "Feature",
      "properties": {
        "node_id": "P007",
        "graph_index": 6,
        "map_label": "Jamnagar",
        "node_class": "aoi",
        "site_type": "refinery",
        "lon": 69.86,
        "lat": 22.345,
        "in_gulf_inset": 0
      },
      "geometry": {
        "type": "Point",
        "coordinates": [
          69.86,
          22.345
        ]
      }
    },
    {
      "type": "Feature",
      "properties": {
        "node_id": "P008",
        "graph_index": 7,
        "map_label": "Al Basrah Terminal",
        "node_class": "aoi",
        "site_type": "terminal",
        "lon": 48.81,
        "lat": 29.681,
        "in_gulf_inset": 1
      },
      "geometry": {
        "type": "Point",
        "coordinates": [
          48.81,
          29.681
        ]
      }
    },
    {
      "type": "Feature",
      "properties": {
        "node_id": "P009",
        "graph_index": 8,
        "map_label": "Ulsan",
        "node_class": "aoi",
        "site_type": "refinery",
        "lon": 129.343,
        "lat": 35.433,
        "in_gulf_inset": 0
      },
      "geometry": {
        "type": "Point",
        "coordinates": [
          129.343,
          35.433
        ]
      }
    },
    {
      "type": "Feature",
      "properties": {
        "node_id": "P010",
        "graph_index": 9,
        "map_label": "Kharg Island",
        "node_class": "aoi",
        "site_type": "terminal",
        "lon": 50.324,
        "lat": 29.231,
        "in_gulf_inset": 1
      },
      "geometry": {
        "type": "Point",
        "coordinates": [
          50.324,
          29.231
        ]
      }
    },
    {
      "type": "Feature",
      "properties": {
        "node_id": "P011",
        "graph_index": 10,
        "map_label": "Yanbu",
        "node_class": "aoi",
        "site_type": "terminal",
        "lon": 38.229,
        "lat": 23.961,
        "in_gulf_inset": 0
      },
      "geometry": {
        "type": "Point",
        "coordinates": [
          38.229,
          23.961
        ]
      }
    },
    {
      "type": "Feature",
      "properties": {
        "node_id": "hormuz",
        "graph_index": 11,
        "map_label": "Strait of Hormuz",
        "node_class": "chokepoint",
        "site_type": "chokepoint",
        "lon": 56.25,
        "lat": 26.57,
        "in_gulf_inset": 1
      },
      "geometry": {
        "type": "Point",
        "coordinates": [
          56.25,
          26.57
        ]
      }
    },
    {
      "type": "Feature",
      "properties": {
        "node_id": "suez",
        "graph_index": 12,
        "map_label": "Suez Canal",
        "node_class": "chokepoint",
        "site_type": "chokepoint",
        "lon": 32.35,
        "lat": 30.42,
        "in_gulf_inset": 0
      },
      "geometry": {
        "type": "Point",
        "coordinates": [
          32.35,
          30.42
        ]
      }
    },
    {
      "type": "Feature",
      "properties": {
        "node_id": "malacca",
        "graph_index": 13,
        "map_label": "Strait of Malacca",
        "node_class": "chokepoint",
        "site_type": "chokepoint",
        "lon": 100.4,
        "lat": 2.5,
        "in_gulf_inset": 0
      },
      "geometry": {
        "type": "Point",
        "coordinates": [
          100.4,
          2.5
        ]
      }
    },
    {
      "type": "Feature",
      "properties": {
        "node_id": "mandeb",
        "graph_index": 14,
        "map_label": "Bab el-Mandeb",
        "node_class": "chokepoint",
        "site_type": "chokepoint",
        "lon": 43.4,
        "lat": 12.6,
        "in_gulf_inset": 0
      },
      "geometry": {
        "type": "Point",
        "coordinates": [
          43.4,
          12.6
        ]
      }
    },
    {
      "type": "Feature",
      "properties": {
        "node_id": "panama",
        "graph_index": 15,
        "map_label": "Panama Canal",
        "node_class": "chokepoint",
        "site_type": "chokepoint",
        "lon": -79.55,
        "lat": 9.08,
        "in_gulf_inset": 0
      },
      "geometry": {
        "type": "Point",
        "coordinates": [
          -79.55,
          9.08
        ]
      }
    },
    {
      "type": "Feature",
      "properties": {
        "node_id": "cape",
        "graph_index": 16,
        "map_label": "Cape of Good Hope",
        "node_class": "chokepoint",
        "site_type": "chokepoint",
        "lon": 18.47,
        "lat": -34.36,
        "in_gulf_inset": 0
      },
      "geometry": {
        "type": "Point",
        "coordinates": [
          18.47,
          -34.36
        ]
      }
    }
  ]
}
