{
  "type": "FeatureCollection",
  "features": [
    {
      "type": "Feature",
      "properties": {
        "name": "Persian Gulf inset",
        "name_zh": "波斯湾放大框",
        "lon_min": 46.5,
        "lat_min": 22.5,
        "lon_max": 60.0,
        "lat_max": 32.0
      },
      "geometry": {
        "type": "Polygon",
        "coordinates": [
          [
            [
              46.5,
              22.5
            ],
            [
              60.0,
              22.5
            ],
            [
              60.0,
              32.0
            ],
            [
              46.5,
              32.0
            ],
            [
              46.5,
              22.5
            ]
          ]
        ]
      }
    }
  ]
}
