{
  "type": "FeatureCollection",
  "features": [
    {
      "type": "Feature",
      "properties": {
        "name": "Figure 3.3 map frame"
      },
      "geometry": {
        "type": "Polygon",
        "coordinates": [
          [
            [
              -135.0,
              -48.0
            ],
            [
              152.0,
              -48.0
            ],
            [
              152.0,
              68.0
            ],
            [
              -135.0,
              68.0
            ],
            [
              -135.0,
              -48.0
            ]
          ]
        ]
      }
    }
  ]
}
